{
"type": "FeatureCollection",
"name": "10_most_polluted",
"crs": { "type": "name", "properties": { "name": "urn:ogc:def:crs:EPSG::25830" } },
"features": [
{ "type": "Feature", "properties": { }, "geometry": { "type": "MultiPolygon", "coordinates": [ [ [ [ 451170.914063583943062, 4480229.914636109955609 ], [ 451170.863773335993756, 4480229.907677524723113 ], [ 451170.81319473113399, 4480229.903280288912356 ], [ 451170.762458137236536, 4480229.901455737650394 ], [ 451170.711694329394959, 4480229.90220857411623 ], [ 451170.661034152901266, 4480229.905536856502295 ], [ 451170.610608185990714, 4480229.911432008258998 ], [ 451160.660608186735772, 4480231.331532008945942 ], [ 451160.606797650747467, 4480231.340717111714184 ], [ 451160.553568508068565, 4480231.35282488912344 ], [ 451160.501079378300346, 4480231.367819259874523 ], [ 451160.449486675905064, 4480231.385655541904271 ], [ 451160.398944144137204, 4480231.40628058463335 ], [ 451140.479044144041836, 4480240.176680585369468 ], [ 451140.439644675818272, 4480240.195060121826828 ], [ 451140.4010813148343, 4480240.215134799480438 ], [ 451101.89895581221208, 4480261.334120310842991 ], [ 450999.088861542928498, 4480152.397439563646913 ], [ 450999.053319058031775, 4480152.361633297987282 ], [ 450999.016015901288483, 4480152.32766520511359 ], [ 450998.977047022490297, 4480152.295621744357049 ], [ 450894.761757803382352, 4480070.919373508542776 ], [ 450805.48196382279275, 4479872.335751731880009 ], [ 450805.460968540632166, 4479872.291931236162782 ], [ 450805.43786941212602, 4479872.249182341620326 ], [ 450805.412720975175034, 4479872.207605980336666 ], [ 450805.385582606191747, 4479872.167300315573812 ], [ 450793.215482606377918, 4479855.007500315085053 ], [ 450793.183978304208722, 4479854.965464435517788 ], [ 450793.150310033757705, 4479854.925140946172178 ], [ 450793.114570703706704, 4479854.886641121469438 ], [ 450793.07685893814778, 4479854.850071202963591 ], [ 450775.196758938429412, 4479838.400271201506257 ], [ 450775.153044099686667, 4479838.362329691648483 ], [ 450775.107207213121001, 4479838.326981069520116 ], [ 450775.059401856968179, 4479838.294343772344291 ], [ 450775.009788205381483, 4479838.26452715229243 ], [ 450752.11968820495531, 4479825.39482715446502 ], [ 450752.052821883233264, 4479825.360473931767046 ], [ 450730.602821883978322, 4479815.340773929841816 ], [ 450730.53699330665404, 4479815.312846025452018 ], [ 450699.46689330652589, 4479803.423346027731895 ], [ 450699.41723499406362, 4479803.405827892944217 ], [ 450699.366723383835051, 4479803.390948031097651 ], [ 450699.315498536045197, 4479803.378747701644897 ], [ 450699.263702488795388, 4479803.36926073487848 ], [ 450699.21147886372637, 4479803.362513435073197 ], [ 450699.158972468285356, 4479803.358524513430893 ], [ 450699.106328893976752, 4479803.357305029407144 ], [ 450699.053694112633821, 4479803.358858363702893 ], [ 450699.001214071642607, 4479803.36318021081388 ], [ 450698.949034289515112, 4479803.370258585549891 ], [ 450698.897299451986328, 4479803.380073862150311 ], [ 450698.846153011138085, 4479803.392598822712898 ], [ 450698.795736787549686, 4479803.407798739150167 ], [ 450698.746190576988738, 4479803.425631464459002 ], [ 450698.697651762689929, 4479803.446047550067306 ], [ 450639.397951762366574, 4479830.247047549113631 ], [ 450639.350127134355716, 4479830.270211684517562 ], [ 450639.30360051774187, 4479830.295883578248322 ], [ 450639.258503293152899, 4479830.323990740813315 ], [ 450639.214962804864626, 4479830.354453801177442 ], [ 450639.173102001368534, 4479830.387186740525067 ], [ 450639.133039087930229, 4479830.422097128815949 ], [ 450639.094887193175964, 4479830.459086385555565 ], [ 450639.05875404929975, 4479830.498050062917173 ], [ 450639.024741688102949, 4479830.538878135383129 ], [ 450638.992946152808145, 4479830.5814553136006 ], [ 450638.96345722663682, 4479830.62566137034446 ], [ 450638.936358179722447, 4479830.671371476724744 ], [ 450638.911725533485878, 4479830.71845655888319 ], [ 450638.88962884497596, 4479830.766783658415079 ], [ 450638.870130510244053, 4479830.81621631141752 ], [ 450638.853285588091239, 4479830.866614930331707 ], [ 450638.839141644712072, 4479830.917837201617658 ], [ 450638.827738619467709, 4479830.9697384852916 ], [ 450638.819108711788431, 4479831.022172223776579 ], [ 450638.813276290718932, 4479831.074990355409682 ], [ 450638.810257825534791, 4479831.12804373446852 ], [ 450638.810061839758419, 4479831.181182551197708 ], [ 450638.812688886886463, 4479831.234256752766669 ], [ 450638.81813154858537, 4479831.287116468884051 ], [ 450638.826374456111807, 4479831.339612437412143 ], [ 450638.837394333386328, 4479831.391596420668066 ], [ 450638.851160062709823, 4479831.442921627312899 ], [ 450638.86763277288992, 4479831.493443128652871 ], [ 450638.886765948671382, 4479831.543018260970712 ], [ 450638.908505562343635, 4479831.591507037170231 ], [ 450697.592703347036149, 4479953.684955519624054 ], [ 450712.540030659642071, 4480005.770574102178216 ], [ 450710.617914869450033, 4480030.741036184132099 ], [ 450707.237005930044688, 4480049.591563367284834 ], [ 450707.229374274786096, 4480049.641279833391309 ], [ 450707.224252160987817, 4480049.691317151300609 ], [ 450707.221652547537815, 4480049.74154872726649 ], [ 450704.313930337375496, 4480159.216410363093019 ], [ 450675.805471070576459, 4480364.855184003710747 ], [ 450659.049171182268765, 4480460.928782620467246 ], [ 450653.419352021533996, 4480493.229092516005039 ], [ 450653.418672743835486, 4480493.233036414720118 ], [ 450652.448790742666461, 4480498.932343019172549 ], [ 450639.719509755552281, 4480573.102149561978877 ], [ 450639.713026241515763, 4480573.145643092691898 ], [ 450639.708461123576853, 4480573.189379609189928 ], [ 450635.948787630419247, 4480618.929357126355171 ], [ 450634.508914337435272, 4480636.309034769423306 ], [ 450634.508770072250627, 4480636.3107949802652 ], [ 450634.44952866982203, 4480637.041537684388459 ], [ 450634.430462809919845, 4480637.232196278870106 ], [ 450634.370546403457411, 4480637.832360483705997 ], [ 450634.366283685842063, 4480637.894728337414563 ], [ 450634.365926216356456, 4480637.957240672782063 ], [ 450634.765912238275632, 4480653.612879511900246 ], [ 450635.025938080332708, 4480669.258417513221502 ], [ 450635.026237851649057, 4480669.271389045752585 ], [ 450635.92643785168184, 4480699.681489045731723 ], [ 450635.928843326750211, 4480699.727256280370057 ], [ 450635.933343255775981, 4480699.772865235805511 ], [ 450635.939928186940961, 4480699.81822011154145 ], [ 450640.211328186909668, 4480725.142320111393929 ], [ 450643.40022850286914, 4480744.048321981914341 ], [ 450645.81042200664524, 4480758.288875388912857 ], [ 450645.820764274685644, 4480758.341396741569042 ], [ 450647.900864274590276, 4480767.591396741569042 ], [ 450657.410980908491183, 4480809.871026126667857 ], [ 450659.500985722523183, 4480819.200601224787533 ], [ 450659.519157566828653, 4480819.269960015080869 ], [ 450664.309221962001175, 4480835.199841605499387 ], [ 450675.806113107129931, 4480873.468394895084202 ], [ 450720.190304127929267, 4481034.842791100032628 ], [ 450720.204953816486523, 4481034.891227238811553 ], [ 450720.22203498223098, 4481034.938860280439258 ], [ 450720.241503885830753, 4481034.985568252392113 ], [ 450720.263310673821252, 4481035.031231551431119 ], [ 450720.28739950619638, 4481035.075733248144388 ], [ 450720.313708699250128, 4481035.118959388695657 ], [ 450720.342170883785002, 4481035.160799285396934 ], [ 450720.372713177464902, 4481035.201145798899233 ], [ 450720.405257371428888, 4481035.239895615726709 ], [ 450720.439720130641945, 4481035.276949509978294 ], [ 450720.476013207342476, 4481035.312212599441409 ], [ 450720.514043666771613, 4481035.345594585873187 ], [ 450720.553714125358965, 4481035.377009989693761 ], [ 450764.479115555761382, 4481068.388557311147451 ], [ 450791.039132198668085, 4481107.414839404635131 ], [ 450792.269086912390776, 4481151.616815019398928 ], [ 450792.271879677660763, 4481151.668682150542736 ], [ 450792.277361863001715, 4481151.720334299840033 ], [ 450792.285518677439541, 4481151.771632108837366 ], [ 450792.296328113938216, 4481151.822437176480889 ], [ 450792.309761008713394, 4481151.872612430714071 ], [ 450792.32578111969633, 4481151.922022499144077 ], [ 450792.344345224788412, 4481151.970534074120224 ], [ 450792.365403237927239, 4481152.018016269430518 ], [ 450792.388898344710469, 4481152.064340979792178 ], [ 450792.414767155307345, 4481152.109383220784366 ], [ 450792.442939875763841, 4481152.153021468780935 ], [ 450792.473340496013407, 4481152.195137986913323 ], [ 450792.505886995350011, 4481152.235619145445526 ], [ 450792.540491563268006, 4481152.274355727247894 ], [ 450792.577060836658347, 4481152.311243219301105 ], [ 450792.61549615173135, 4481152.346182099543512 ], [ 450792.655693810025696, 4481152.379078104160726 ], [ 450792.69754535832908, 4481152.409842479042709 ], [ 450792.740937881113496, 4481152.43839222099632 ], [ 450792.785754305543378, 4481152.464650304056704 ], [ 450792.831873716902919, 4481152.488545884378254 ], [ 450792.87917168502463, 4481152.510014490224421 ], [ 450792.927520600147545, 4481152.528998199850321 ], [ 450792.976790016808081, 4481152.545445796102285 ], [ 450793.026847006345633, 4481152.559312902390957 ], [ 450793.077556514937896, 4481152.570562105625868 ], [ 450793.128781728446484, 4481152.579163055866957 ], [ 450793.180384441220667, 4481152.585092546418309 ], [ 450793.232225429324899, 4481152.588334580883384 ], [ 450793.2841648258036, 4481152.58888041228056 ], [ 450793.336062498157844, 4481152.586728567257524 ], [ 450793.387778426578734, 4481152.581884850747883 ], [ 450793.439173081540503, 4481152.574362332932651 ], [ 450793.490107800345868, 4481152.564181309193373 ], [ 450793.540445161168464, 4481152.551369246095419 ], [ 450793.590049353952054, 4481152.535960713401437 ], [ 450828.74774935428286, 4481140.605260712094605 ], [ 450828.79511866933899, 4481140.587841037660837 ], [ 450828.841548748372588, 4481140.568053545430303 ], [ 450857.027448748296592, 4481127.705953547731042 ], [ 450857.076643701409921, 4481127.681855084374547 ], [ 450885.262543701333925, 4481112.904155083931983 ], [ 450885.319997771410272, 4481112.871569215320051 ], [ 450913.505897771334276, 4481095.631069215945899 ], [ 450913.548973295954056, 4481095.60317765455693 ], [ 450913.590561260527465, 4481095.573113036341965 ], [ 450945.881161260476802, 4481070.943913035094738 ], [ 450945.924680914380588, 4481070.908750531263649 ], [ 450966.721980914124288, 4481053.120950530283153 ], [ 450966.759753167571034, 4481053.08694461081177 ], [ 450982.357753167802002, 4481038.309544611722231 ], [ 450982.390151334868278, 4481038.277417018078268 ], [ 451022.750351334863808, 4480996.385317019186914 ], [ 451022.797285428852774, 4480996.333044967614114 ], [ 451162.033085428760387, 4480829.850944966077805 ], [ 451162.048830370651558, 4480829.831635172478855 ], [ 451257.937130370351952, 4480709.195135172456503 ], [ 451257.970475544221699, 4480709.150704014115036 ], [ 451258.001301977492403, 4480709.104489737190306 ], [ 451286.303901977604255, 4480664.008889736607671 ], [ 451286.331400110386312, 4480663.962325314059854 ], [ 451286.356340861588251, 4480663.914342486299574 ], [ 451295.246840862208046, 4480645.617542488500476 ], [ 451295.262953004508745, 4480645.582697335630655 ], [ 451305.055353004252538, 4480623.291497334837914 ], [ 451305.083579297992401, 4480623.219876219518483 ], [ 451313.071979298139922, 4480600.413376220501959 ], [ 451313.084594168874901, 4480600.374879089184105 ], [ 451313.095639440056402, 4480600.335902608931065 ], [ 451318.893739440303762, 4480578.173702608793974 ], [ 451318.905271951924078, 4480578.124594897963107 ], [ 451318.914313404704444, 4480578.074968108907342 ], [ 451324.068013404379599, 4480545.089368109591305 ], [ 451324.073765617329627, 4480545.046489453874528 ], [ 451324.077657831832767, 4480545.003402126953006 ], [ 451325.623657831922174, 4480522.454702125862241 ], [ 451325.626000000163913, 4480522.38629515003413 ], [ 451325.625900000333786, 4480501.770295150578022 ], [ 451325.624325141136069, 4480501.714199749752879 ], [ 451324.335625140753109, 4480478.778999750502408 ], [ 451324.329647891107015, 4480478.712433041073382 ], [ 451321.494847890804522, 4480455.777233039960265 ], [ 451321.489493725181092, 4480455.739756386727095 ], [ 451311.716793725558091, 4480395.502756386063993 ], [ 451311.714958967990242, 4480395.491830522194505 ], [ 451289.25075896771159, 4480266.111330522224307 ], [ 451289.240363581746351, 4480266.059597404673696 ], [ 451289.227253805613145, 4480266.008484654128551 ], [ 451289.211466141976416, 4480265.958134586922824 ], [ 451289.193044549494516, 4480265.908687398768961 ], [ 451289.17204032104928, 4480265.860280768014491 ], [ 451289.148511940205935, 4480265.813049477525055 ], [ 451289.122524919104762, 4480265.76712503656745 ], [ 451289.094151615281589, 4480265.722635317593813 ], [ 451289.063471030909568, 4480265.679704194888473 ], [ 451289.030568592366762, 4480265.638451206497848 ], [ 451288.995535912516061, 4480265.598991216160357 ], [ 451288.958470535581, 4480265.561434094794095 ], [ 451288.919475665665232, 4480265.525884415954351 ], [ 451288.878659879323095, 4480265.492441164329648 ], [ 451288.836136823170818, 4480265.461197457276285 ], [ 451288.792024897586089, 4480265.432240290567279 ], [ 451288.74644692678703, 4480265.40565029066056 ], [ 451288.699529817269649, 4480265.38150149397552 ], [ 451288.651404203963466, 4480265.359861142002046 ], [ 451288.602204086782876, 4480265.340789487585425 ], [ 451233.451732993649784, 4480245.619908331893384 ], [ 451210.694854309957009, 4480237.311447915621102 ], [ 451210.646573517587967, 4480237.295202011242509 ], [ 451210.597528057929594, 4480237.281435850076377 ], [ 451210.547845202148892, 4480237.270185154862702 ], [ 451186.82784520246787, 4480232.53048515226692 ], [ 451186.794063584820833, 4480232.524336109869182 ], [ 451170.914063583943062, 4480229.914636109955609 ] ] ], [ [ [ 438793.086258194525726, 4468580.398863441310823 ], [ 438808.709206974075641, 4468679.444972077384591 ], [ 438833.714197830238845, 4468838.044420724734664 ], [ 438856.944250317872502, 4469150.613815260119736 ], [ 438856.947880417574197, 4469150.652483534999192 ], [ 438896.063953963108361, 4469495.263922572135925 ], [ 438646.798174954892602, 4469474.805282009765506 ], [ 438330.890050130023155, 4469448.637713084928691 ], [ 438330.879396732372697, 4469448.636887917295098 ], [ 438229.339896732417401, 4469441.317587919533253 ], [ 438123.390414645837154, 4469433.678489209152758 ], [ 438123.338205371052027, 4469433.676094168797135 ], [ 438123.285942270129453, 4469433.676430142484605 ], [ 438123.233768102130853, 4469433.679496212862432 ], [ 438123.181825383100659, 4469433.685284004546702 ], [ 438080.852149114769418, 4469439.525480731390417 ], [ 438029.512578208057676, 4469446.605976717546582 ], [ 437906.344586850260384, 4469463.596809987910092 ], [ 437862.54612833133433, 4469469.526941894553602 ], [ 437695.45659807336051, 4469492.19552758615464 ], [ 437695.266221152851358, 4469492.213749377056956 ], [ 437695.264537472859956, 4469492.21391196642071 ], [ 437632.644937473000027, 4469498.314411966130137 ], [ 437615.454725883319043, 4469499.994542371481657 ], [ 437615.437086220597848, 4469499.996424530632794 ], [ 437537.71762920753099, 4469508.987019557505846 ], [ 437516.740860805439297, 4469511.412244469858706 ], [ 437513.285567304934375, 4469511.510967140085995 ], [ 437509.78699421096826, 4469511.600930448621511 ], [ 437509.784131592779886, 4469511.601008160971105 ], [ 437497.884584178391378, 4469511.941098084673285 ], [ 437481.375036637939047, 4469512.401288259774446 ], [ 437481.323111800651532, 4469512.404088160954416 ], [ 437481.271402712911367, 4469512.409583469852805 ], [ 437481.220049197552726, 4469512.417759327217937 ], [ 437481.169190115877427, 4469512.428593624383211 ], [ 437481.118962992331944, 4469512.442057064734399 ], [ 437481.069503642502241, 4469512.458113243803382 ], [ 437481.020945805765223, 4469512.476718745194376 ], [ 437480.97342078393558, 4469512.497823257930577 ], [ 437480.927057086024433, 4469512.521369716152549 ], [ 437480.881980080739595, 4469512.547294449061155 ], [ 437480.83831165760057, 4469512.575527355074883 ], [ 437480.796169897250365, 4469512.605992092750967 ], [ 437480.755668752186466, 4469512.638606282882392 ], [ 437480.716917738667689, 4469512.673281737603247 ], [ 437480.680021640553605, 4469512.709924692288041 ], [ 437480.645080225833226, 4469512.748436063528061 ], [ 437480.61218797712354, 4469512.788711715489626 ], [ 437480.581433836079668, 4469512.830642742104828 ], [ 437480.552900962589774, 4469512.874115760438144 ], [ 437480.526666510500945, 4469512.919013218022883 ], [ 437480.502801418479066, 4469512.965213710442185 ], [ 437480.481370218330994, 4469513.012592311948538 ], [ 437480.462430860730819, 4469513.061020907945931 ], [ 437480.44603455811739, 4469513.110368546098471 ], [ 437480.432225646683946, 4469513.160501790232956 ], [ 437480.421041466004681, 4469513.21128507796675 ], [ 437480.412512258510105, 4469513.262581089511514 ], [ 437480.406661087356042, 4469513.314251119270921 ], [ 437480.40350377431605, 4469513.366155449301004 ], [ 437480.403048856765963, 4469513.418153730221093 ], [ 437480.405297564924695, 4469513.470105356536806 ], [ 437480.410243818187155, 4469513.521869850344956 ], [ 437480.417874241713434, 4469513.573307237587869 ], [ 437480.428168202633969, 4469513.624278430826962 ], [ 437480.44109786581248, 4469513.674645602703094 ], [ 437480.45662826905027, 4469513.7242725584656 ], [ 437480.474717417731881, 4469513.773025105707347 ], [ 437480.495316398271825, 4469513.820771416649222 ], [ 437480.518369510420598, 4469513.867382382974029 ], [ 437480.543814417906106, 4469513.912731967866421 ], [ 437481.383183846483007, 4469515.321573581546545 ], [ 437539.413155823480338, 4469613.270213545300066 ], [ 437539.442034781211987, 4469613.316076808609068 ], [ 437539.473356112488545, 4469613.360308102332056 ], [ 437539.507027812942397, 4469613.402777500450611 ], [ 437539.542950974195264, 4469613.44336025044322 ], [ 437655.538795169792138, 4469737.539983290247619 ], [ 437423.30666749260854, 4469953.409360856749117 ], [ 437423.269011959549971, 4469953.446260686032474 ], [ 437423.233353490068112, 4469953.485093792900443 ], [ 437423.199791198421735, 4469953.525752237997949 ], [ 437423.168418372282758, 4469953.568123010918498 ], [ 437423.13932221342111, 4469953.612088339403272 ], [ 437423.112583595793694, 4469953.657526020891964 ], [ 437423.088276840280741, 4469953.704309760592878 ], [ 437423.066469508514274, 4469953.752309518866241 ], [ 437423.04722221463453, 4469953.801391881890595 ], [ 437423.030588457360864, 4469953.851420420221984 ], [ 437423.016614470630884, 4469953.902256079949439 ], [ 437423.005339095834643, 4469953.953757560811937 ], [ 437422.996793673199136, 4469954.005781712010503 ], [ 437422.991001955058891, 4469954.058183931745589 ], [ 437422.987980039673857, 4469954.110818564891815 ], [ 437422.987736326584127, 4469954.163539312779903 ], [ 437422.990271493268665, 4469954.216199634596705 ], [ 437422.995578493049834, 4469954.268653159961104 ], [ 437423.003642574942205, 4469954.320754093118012 ], [ 437423.014441324572545, 4469954.372357616201043 ], [ 437423.027944726403803, 4469954.423320295289159 ], [ 437423.0441152472049, 4469954.47350047994405 ], [ 437423.06290794047527, 4469954.522758689709008 ], [ 437423.084270571183879, 4469954.570958011783659 ], [ 437423.108143761171959, 4469954.617964472621679 ], [ 437423.134461153997108, 4469954.663647416979074 ], [ 437423.163149599509779, 4469954.707879868336022 ], [ 437423.194129357114434, 4469954.750538879074156 ], [ 437423.227314317482524, 4469954.79150587785989 ], [ 437423.262612241785973, 4469954.830666995607316 ], [ 437423.299925018101931, 4469954.867913382127881 ], [ 437423.339148934232071, 4469954.903141509741545 ], [ 437423.380174965888727, 4469954.936253461055458 ], [ 437423.422889079723973, 4469954.967157199978828 ], [ 437423.467172550270334, 4469954.995766828767955 ], [ 437423.512902289978229, 4469955.02200282458216 ], [ 437423.559951191418804, 4469955.045792264863849 ], [ 437423.608188480429817, 4469955.067069025710225 ], [ 437588.967988480173517, 4470022.855869025923312 ], [ 437803.882783360895701, 4470110.939402667805552 ], [ 437837.162154516612645, 4470165.827388087287545 ], [ 437924.123112015367951, 4470309.306817963719368 ], [ 437924.142046867054887, 4470309.336843594908714 ], [ 438003.712846867914777, 4470430.686543594114482 ], [ 438003.714042520441581, 4470430.688362706452608 ], [ 438008.753781608946156, 4470438.337866686284542 ], [ 438053.736686248448677, 4470506.755694859661162 ], [ 438070.953771095606498, 4470539.651430010795593 ], [ 438098.194128604372963, 4470591.721248790621758 ], [ 438146.564813497185241, 4470684.131211029365659 ], [ 438159.684998497483321, 4470709.201182366348803 ], [ 438159.692917910637334, 4470709.216010024771094 ], [ 438184.783166932291351, 4470755.257466142065823 ], [ 438195.374059497436974, 4470776.798535525798798 ], [ 438213.395680907182395, 4470813.4697306137532 ], [ 438233.812667372578289, 4470883.93889921810478 ], [ 438072.838710526935756, 4470975.739829020574689 ], [ 438072.835623707156628, 4470975.741596668958664 ], [ 437851.287723707500845, 4471103.13339666929096 ], [ 437851.242495210084599, 4471103.161023465916514 ], [ 437851.198793901654426, 4471103.191007670015097 ], [ 437851.156742532912176, 4471103.223265061154962 ], [ 437851.116459220065735, 4471103.257705031894147 ], [ 437851.078057113219984, 4471103.294230844825506 ], [ 437851.041644078446552, 4471103.332739906385541 ], [ 437851.007322394580115, 4471103.3731240471825 ], [ 437850.975188466487452, 4471103.415269836783409 ], [ 437850.945332553703338, 4471103.45905889198184 ], [ 437850.91783851722721, 4471103.504368215799332 ], [ 437850.892783583898563, 4471103.551070541143417 ], [ 437850.870238129340578, 4471103.599034687504172 ], [ 437850.850265480636153, 4471103.648125930689275 ], [ 437850.832921737979632, 4471103.698206380009651 ], [ 437850.818255617574323, 4471103.74913536850363 ], [ 437850.806308314320631, 4471103.800769841298461 ], [ 437850.797113386623096, 4471103.852964766323566 ], [ 437850.790696661628317, 4471103.905573534779251 ], [ 437850.787076163047459, 4471103.958448375575244 ], [ 437850.786262060282752, 4471104.011440772563219 ], [ 437850.788256640080363, 4471104.064401876181364 ], [ 437850.793054299952928, 4471104.117182927206159 ], [ 437850.800641563953832, 4471104.169635670259595 ], [ 437850.810997120512184, 4471104.221612774766982 ], [ 437850.82409188238671, 4471104.272968241944909 ], [ 437850.839889068272896, 4471104.323557823896408 ], [ 437850.85834430612158, 4471104.373239421285689 ], [ 437850.87940575776156, 4471104.421873484738171 ], [ 437850.903014264709782, 4471104.46932340785861 ], [ 437850.929103513888549, 4471104.515455912798643 ], [ 437850.957600224472117, 4471104.560141417197883 ], [ 437850.988424353243317, 4471104.603254407644272 ], [ 437851.021489319624379, 4471104.644673786126077 ], [ 437851.056702248810325, 4471104.684283209964633 ], [ 437851.093964232772123, 4471104.721971423365176 ], [ 437851.133170608023647, 4471104.757632564753294 ], [ 437890.63307060819352, 4471138.817432563751936 ], [ 437890.643516050593462, 4471138.82631528750062 ], [ 438034.553216050320771, 4471259.515715288929641 ], [ 438155.322929513989948, 4471360.795226578600705 ], [ 438155.332161749829538, 4471360.802875093184412 ], [ 438254.451961750281043, 4471441.922375093214214 ], [ 438323.981784327828791, 4471498.822093571536243 ], [ 438324.042752346140333, 4471498.868211074732244 ], [ 438495.222210747364443, 4471618.347282039932907 ], [ 438552.888654303969815, 4471658.604638882912695 ], [ 438665.629576644219924, 4471738.677804633043706 ], [ 438773.913858173764311, 4471817.793245751410723 ], [ 438816.063857937522698, 4471848.573191665112972 ], [ 438816.085622519196477, 4471848.588644092902541 ], [ 438860.61552251962712, 4471879.318444094620645 ], [ 439038.660049163445365, 4472002.154081900604069 ], [ 439073.575018156145234, 4472026.870391238480806 ], [ 439133.9050694173784, 4472069.550169048830867 ], [ 439133.936124719504733, 4472069.57127523329109 ], [ 439170.486024719546549, 4472093.421075233258307 ], [ 439254.585709583421703, 4472148.300565355457366 ], [ 439254.630844910105225, 4472148.328341625630856 ], [ 439254.677388402400538, 4472148.353687675669789 ], [ 439254.725209332653321, 4472148.376532315276563 ], [ 439254.774173385289032, 4472148.396811379119754 ], [ 439254.824143033998553, 4472148.414467911235988 ], [ 439254.874977928178851, 4472148.429452317766845 ], [ 439254.926535286882427, 4472148.441722513176501 ], [ 439254.978670299926307, 4472148.451244032010436 ], [ 439255.031236534763593, 4472148.457990132272243 ], [ 439255.084086347545963, 4472148.461941866204143 ], [ 439255.137071298086084, 4472148.463088133372366 ], [ 439255.190042566508055, 4472148.461425715126097 ], [ 439255.242851371469442, 4472148.456959281116724 ], [ 439255.295349387743045, 4472148.449701375328004 ], [ 439255.347389163332991, 4472148.439672383479774 ], [ 439255.398824532981962, 4472148.426900475285947 ], [ 439255.449511029291898, 4472148.411421521566808 ], [ 439255.49930628814036, 4472148.393278999254107 ], [ 439255.548070448567159, 4472148.372523865662515 ], [ 439255.595666545792483, 4472148.349214415997267 ], [ 439255.641960895794909, 4472148.323416120372713 ], [ 439255.686823470750824, 4472148.295201437547803 ], [ 439255.730128264229279, 4472148.264649616554379 ], [ 439255.7717536452692, 4472148.231846468523145 ], [ 439255.811582699941937, 4472148.196884126402438 ], [ 439255.849503559526056, 4472148.159860791638494 ], [ 439255.885409715061542, 4472148.120880451984704 ], [ 439255.919200316246133, 4472148.080052591860294 ], [ 439255.950780454732012, 4472148.037491885013878 ], [ 439255.980061430833302, 4472147.993317872285843 ], [ 439256.006961002480239, 4472147.947654627263546 ], [ 439256.031403616361786, 4472147.900630404241383 ], [ 439256.053320620034356, 4472147.852377281524241 ], [ 439256.072650454763789, 4472147.803030787967145 ], [ 439256.089338828460313, 4472147.752729524858296 ], [ 439313.928438828908838, 4471956.611829526722431 ], [ 439313.941850379225798, 4471956.56309824064374 ], [ 439313.952782553678844, 4471956.513751553371549 ], [ 439313.961207425047178, 4471956.463915526866913 ], [ 439313.967103470989969, 4471956.413717472925782 ], [ 439313.970455629460048, 4471956.363285628147423 ], [ 439313.971255336946342, 4471956.31274882517755 ], [ 439313.969500550650991, 4471956.262236166745424 ], [ 439313.965195753262378, 4471956.211876692250371 ], [ 439313.958351941837464, 4471956.161799049936235 ], [ 439313.948986599687487, 4471956.112131169997156 ], [ 439296.598786599526647, 4471875.362131169997156 ], [ 439296.589174486463889, 4471875.321537300944328 ], [ 439296.577877677162178, 4471875.28137964848429 ], [ 439268.882687523029745, 4471784.166230488568544 ], [ 439268.226584925723728, 4471772.493479800410569 ], [ 439272.180610873154365, 4471752.752558927983046 ], [ 439299.999163251486607, 4471619.606115854345262 ], [ 439300.008392165414989, 4471619.555463161319494 ], [ 439300.015001777326688, 4471619.504402598366141 ], [ 439300.01897456595907, 4471619.453069518320262 ], [ 439300.020300000032876, 4471619.401599999517202 ], [ 439300.020299999974668, 4471619.240945190191269 ], [ 439300.680021592881531, 4471584.320388699881732 ], [ 439300.6798037373228, 4471584.273350952193141 ], [ 439300.677374161430635, 4471584.226375487633049 ], [ 439295.387174160801806, 4471514.00627548713237 ], [ 439295.382067171507515, 4471513.955691103823483 ], [ 439295.374395826307591, 4471513.905431659892201 ], [ 439295.364179954514839, 4471513.855627070181072 ], [ 439295.351445962733123, 4471513.806406072340906 ], [ 439288.726611879479606, 4471490.644367380067706 ], [ 439266.241352093056776, 4471399.164466334506869 ], [ 439248.821701288165059, 4471327.106224477291107 ], [ 439248.819045660551637, 4471327.095498980954289 ], [ 439238.768945659976453, 4471287.445598980411887 ], [ 439216.345606718386989, 4471199.043245400302112 ], [ 439215.830016315216199, 4471197.010408790782094 ], [ 439214.171269003883936, 4471190.165677942335606 ], [ 439214.170751851168461, 4471190.163554083555937 ], [ 439213.940894318802748, 4471189.224036406725645 ], [ 439193.710936126590241, 4471106.104619056917727 ], [ 439193.695767264347523, 4471106.04926036670804 ], [ 439193.677447149413638, 4471105.994863194413483 ], [ 439193.656036140688229, 4471105.94160676188767 ], [ 439185.643429816176649, 4471087.554697807878256 ], [ 439172.88204274646705, 4471042.071037317626178 ], [ 439139.090963753696997, 4470921.561112236231565 ], [ 439108.830063646833878, 4470813.641111857257783 ], [ 439097.264563075150363, 4470772.401427107863128 ], [ 439152.978544784768019, 4470839.350463314913213 ], [ 439194.068886845139787, 4470888.72031385730952 ], [ 439276.589507744181901, 4470987.850038968957961 ], [ 439311.369675139372703, 4471029.639799792319536 ], [ 439347.941979847732, 4471073.58045410271734 ], [ 439379.174492820049636, 4471113.000904270447791 ], [ 439379.19138528133044, 4471113.021649026311934 ], [ 439407.851385281479452, 4471147.27144902665168 ], [ 439407.854035887226928, 4471147.274603376165032 ], [ 439426.072297985781915, 4471168.864758460782468 ], [ 439426.223862660233863, 4471169.044416586868465 ], [ 439426.255859008873813, 4471169.080538082867861 ], [ 439454.20585900900187, 4471199.140438082627952 ], [ 439454.233322848274838, 4471199.168829401955009 ], [ 439454.261886527994648, 4471199.196113932877779 ], [ 439483.70099108631257, 4471226.225283605977893 ], [ 439495.130197447608225, 4471236.764451773837209 ], [ 439495.165586767427158, 4471236.795574589632452 ], [ 439495.202403130591847, 4471236.8249954842031 ], [ 439495.240564766863827, 4471236.852649112232029 ], [ 439495.279986917797942, 4471236.878474053926766 ], [ 439569.469686917786021, 4471283.018074052408338 ], [ 439569.507987892080564, 4471283.040728020481765 ], [ 439569.547258775914088, 4471283.061655623838305 ], [ 439580.245667116250843, 4471288.460752371698618 ], [ 439719.593578176340088, 4471359.40914336964488 ], [ 439784.691983330645598, 4471392.517913009040058 ], [ 439784.740861048921943, 4471392.545843134634197 ], [ 439784.795367630256806, 4471392.574796104803681 ], [ 439816.993519011652097, 4471408.423890649341047 ], [ 439825.40231465868419, 4471413.082143990322948 ], [ 439843.424368753447197, 4471423.056632479652762 ], [ 439844.817241643846501, 4471423.949248204007745 ], [ 439852.477941361896228, 4471428.849596207030118 ], [ 439872.779778868716676, 4471441.824343629181385 ], [ 439887.325766464637127, 4471451.534862107597291 ], [ 439899.806055886379909, 4471461.513192374259233 ], [ 439916.481453275308013, 4471475.276179750449955 ], [ 439950.785642508533783, 4471509.899850137531757 ], [ 439976.962801735207904, 4471539.591158210299909 ], [ 440015.743076577724423, 4471590.472089078277349 ], [ 440056.662191507697571, 4471647.202972342260182 ], [ 440199.209845164848957, 4471864.683688462711871 ], [ 440199.239734498900361, 4471864.726781148463488 ], [ 440199.271841896988917, 4471864.768247603438795 ], [ 440199.306079052388668, 4471864.807973779737949 ], [ 440199.342351800820325, 4471864.845850416459143 ], [ 440199.380560379417147, 4471864.88177333958447 ], [ 440199.420599701232277, 4471864.915643747895956 ], [ 440199.462359644006938, 4471864.947368486784399 ], [ 440199.505725353199523, 4471864.976860301569104 ], [ 440199.550577557878569, 4471865.004038079641759 ], [ 440199.596792898606509, 4471865.028827073052526 ], [ 440199.644244267081376, 4471865.05115910153836 ], [ 440199.692801155208144, 4471865.070972746238112 ], [ 440199.742330014531035, 4471865.088213510811329 ], [ 440199.792694623232819, 4471865.102833977900445 ], [ 440199.843756460933946, 4471865.114793936721981 ], [ 440199.895375089603476, 4471865.124060492962599 ], [ 440199.947408539825119, 4471865.130608159117401 ], [ 440199.99971370131243, 4471865.134418928064406 ], [ 440200.052146716509014, 4471865.13548231869936 ], [ 440200.104563376167789, 4471865.133795405738056 ], [ 440200.156819515977986, 4471865.129362829960883 ], [ 440200.208771413192153, 4471865.122196780517697 ], [ 440200.260276181797963, 4471865.112316968850791 ], [ 440200.311192165594548, 4471865.099750565364957 ], [ 440200.361379327659961, 4471865.084532135166228 ], [ 440200.410699635685887, 4471865.066703530959785 ], [ 440200.459017441491596, 4471865.046313790604472 ], [ 440200.506199854018632, 4471865.023418991826475 ], [ 440200.552117105107754, 4471864.998082102276385 ], [ 440200.596642906079069, 4471864.970372810028493 ], [ 440200.639654795406386, 4471864.940367322415113 ], [ 440200.681034475041088, 4471864.908148166723549 ], [ 440221.030802501947619, 4471848.188074436970055 ], [ 440307.240171190002002, 4471777.367300158366561 ], [ 440307.275926084141247, 4471777.336485954932868 ], [ 440307.310187094553839, 4471777.304018882103264 ], [ 440307.342877890099771, 4471777.269971275702119 ], [ 440390.112177889852319, 4471686.88927127700299 ], [ 440390.152355287456885, 4471686.842590904794633 ], [ 440390.189582820166834, 4471686.793525732122362 ], [ 440628.277382820902858, 4471352.071225729770958 ], [ 440751.386275002267212, 4471179.000136722810566 ], [ 440751.415292479388881, 4471178.957012332044542 ], [ 440751.442029989499133, 4471178.912438431754708 ], [ 440751.46641529496992, 4471178.866535448469222 ], [ 440751.488382513460238, 4471178.819427398964763 ], [ 440751.507872295507696, 4471178.771241555921733 ], [ 440751.52483198500704, 4471178.722108106128871 ], [ 440751.539215761586092, 4471178.672159792855382 ], [ 440751.550984764122404, 4471178.621531562879682 ], [ 440751.560107196099125, 4471178.570360201410949 ], [ 440751.566558411053848, 4471178.518783958628774 ], [ 440751.570320979633834, 4471178.466942179016769 ], [ 440751.571384736453183, 4471178.414974925108254 ], [ 440751.569746807450429, 4471178.363022598437965 ], [ 440751.565411617862992, 4471178.311225560493767 ], [ 440751.55839088029461, 4471178.259723752737045 ], [ 440751.548703562759329, 4471178.208656317554414 ], [ 440751.536375837749802, 4471178.158161226660013 ], [ 440751.521441011456773, 4471178.108374902978539 ], [ 440751.503939433663618, 4471178.059431856498122 ], [ 440751.483918388898019, 4471178.011464317329228 ], [ 440751.461431968549732, 4471177.964601881802082 ], [ 440751.436540924769361, 4471177.918971157632768 ], [ 440751.409312506322749, 4471177.874695427715778 ], [ 440751.379820277099498, 4471177.831894312985241 ], [ 440751.348143916868139, 4471177.790683449245989 ], [ 440751.314369006664492, 4471177.751174178905785 ], [ 440751.278586797008757, 4471177.713473243638873 ], [ 440751.240893961687107, 4471177.677682502195239 ], [ 440639.09119396173628, 4471076.598282501101494 ], [ 440638.690664730966091, 4471076.23780585359782 ], [ 440638.653005704109091, 4471076.205565921030939 ], [ 440543.161415641894564, 4470998.472830434329808 ], [ 440388.388878725585528, 4470866.870571461506188 ], [ 440388.348260062513873, 4470866.837820451706648 ], [ 440388.305988403502852, 4470866.807232689112425 ], [ 440388.262178833247162, 4470866.778891447931528 ], [ 440388.216950623609591, 4470866.752873887307942 ], [ 440388.170426908589434, 4470866.729250839911401 ], [ 440388.122734349046368, 4470866.708086621016264 ], [ 440373.372834348934703, 4470860.618086621165276 ], [ 440373.319025201897603, 4470860.597661604173481 ], [ 440373.264130099210888, 4470860.580366133712232 ], [ 440373.208330886787735, 4470860.56625750195235 ], [ 440373.15181240538368, 4470860.555382444523275 ], [ 440300.332012405619025, 4470848.705782444216311 ], [ 440300.301311320974492, 4470848.701274383813143 ], [ 440098.279918477404863, 4470822.232098505832255 ], [ 440112.952715941646602, 4470706.881484862416983 ], [ 440134.170620615943335, 4470544.012384181842208 ], [ 440152.6186774878297, 4470402.13462329749018 ], [ 440161.477586151799187, 4470336.967302019707859 ], [ 440161.478090343356598, 4470336.963539632037282 ], [ 440166.857590343162883, 4470296.233439633622766 ], [ 440166.859734625031706, 4470296.216029507108033 ], [ 440178.001705376431346, 4470198.70892311539501 ], [ 440319.109387112897821, 4470303.47420063149184 ], [ 440319.151814703189302, 4470303.504025999456644 ], [ 440319.195731514657382, 4470303.531611623242497 ], [ 440319.241019426379353, 4470303.556883307173848 ], [ 440319.287556629744358, 4470303.57977307960391 ], [ 440319.335217955638655, 4470303.600219374522567 ], [ 440319.383875211817212, 4470303.618167199194431 ], [ 440319.43339752702741, 4470303.633568279445171 ], [ 440319.483651703456417, 4470303.646381191909313 ], [ 440319.534502574824728, 4470303.656571473926306 ], [ 440319.585813369951211, 4470303.664111718535423 ], [ 440319.637446080567315, 4470303.668981643393636 ], [ 440319.689261832623743, 4470303.671168151311576 ], [ 440319.741121259692591, 4470303.670665360055864 ], [ 440319.792884877941106, 4470303.667474623769522 ], [ 440319.84441346116364, 4470303.66160452272743 ], [ 440319.89556841540616, 4470303.653070846572518 ], [ 440319.946212151611689, 4470303.641896546818316 ], [ 440319.996208455588203, 4470303.628111680038273 ], [ 440320.045422854775097, 4470303.611753322184086 ], [ 440320.093722979421727, 4470303.592865469865501 ], [ 440320.140978918934707, 4470303.571498927660286 ], [ 440320.187063571298495, 4470303.547711161896586 ], [ 440320.231852984812576, 4470303.521566154435277 ], [ 440320.275226691388525, 4470303.493134225718677 ], [ 440320.3170680309413, 4470303.462491848506033 ], [ 440320.357264464662876, 4470303.429721440188587 ], [ 440320.395707878225949, 4470303.394911141134799 ], [ 440320.43229487206554, 4470303.35815457906574 ], [ 440320.466927039902657, 4470303.319550615735352 ], [ 440320.4995112332399, 4470303.279203084297478 ], [ 440320.529959811887238, 4470303.237220504321158 ], [ 440347.491076852544211, 4470263.958987512625754 ], [ 440392.831544295477215, 4470201.880306926555932 ], [ 440392.864297003892716, 4470201.832626317627728 ], [ 440392.894237927044742, 4470201.783131657168269 ], [ 440444.421261749928817, 4470110.760214968584478 ], [ 440556.548964594723657, 4470108.868957782164216 ], [ 440556.601017522974871, 4470108.866722361184657 ], [ 440556.652883374306839, 4470108.861778888851404 ], [ 440556.704421358648688, 4470108.854140785522759 ], [ 440556.755491575866472, 4470108.843828784301877 ], [ 440556.805955395684578, 4470108.830870877951384 ], [ 440556.855675833765417, 4470108.815302240662277 ], [ 440556.904517923889216, 4470108.797165132127702 ], [ 440556.952349083847366, 4470108.77650878764689 ], [ 440556.999039475806057, 4470108.753389277495444 ], [ 440557.044462358462624, 4470108.727869359776378 ], [ 440557.088494431227446, 4470108.700018309056759 ], [ 440557.131016168859787, 4470108.669911727309227 ], [ 440557.171912145859096, 4470108.637631338089705 ], [ 440557.211071349971462, 4470108.603264767676592 ], [ 440557.248387483297847, 4470108.566905303858221 ], [ 440557.2837592511205, 4470108.528651643544436 ], [ 440557.3170906365267, 4470108.488607628270984 ], [ 440557.3482911613537, 4470108.446881955489516 ], [ 440557.377276131650433, 4470108.403587892651558 ], [ 440557.403966867597774, 4470108.358842958696187 ], [ 440557.428290917014237, 4470108.312768615782261 ], [ 440557.45018225221429, 4470108.265489933080971 ], [ 440557.469581449055113, 4470108.2171352468431 ], [ 440557.486435848346446, 4470108.167835818603635 ], [ 440557.500699698750395, 4470108.117725470103323 ], [ 440557.512334280880168, 4470108.066940226592124 ], [ 440557.521308012772352, 4470108.015617945231497 ], [ 440557.52759653510293, 4470107.963897939771414 ], [ 440557.531182777660433, 4470107.911920605227351 ], [ 440561.13772558135679, 4470023.764702880755067 ], [ 440572.428629276517313, 4470007.724303014576435 ], [ 440572.458148939593229, 4470007.679896041750908 ], [ 440572.485259543580469, 4470007.633978671394289 ], [ 440572.509884002560284, 4470007.58668146468699 ], [ 440572.531952299701516, 4470007.538138905540109 ], [ 440572.551401686097961, 4470007.488489020615816 ], [ 440572.568176859698724, 4470007.43787298258394 ], [ 440572.582230122061446, 4470007.386434713378549 ], [ 440572.59352151438361, 4470007.33432047162205 ], [ 440572.60201893071644, 4470007.281678438186646 ], [ 440572.607698209641967, 4470007.228658295236528 ], [ 440572.610543202725239, 4470007.17541079968214 ], [ 440572.610545820614789, 4470007.122087355703115 ], [ 440572.607706055860035, 4470007.068839580751956 ], [ 440572.602031982911285, 4470007.015818880870938 ], [ 440572.59353973553516, 4470006.96317601390183 ], [ 440572.582253460364882, 4470006.911060662940145 ], [ 440572.568205248680897, 4470006.85962101444602 ], [ 440572.551435045141261, 4470006.809003329835832 ], [ 440572.531990533869248, 4470006.759351534768939 ], [ 440572.509927003178746, 4470006.710806809365749 ], [ 440572.485307188355364, 4470006.663507184945047 ], [ 440572.458201093133539, 4470006.617587152868509 ], [ 440572.428685790626332, 4470006.57317728176713 ], [ 440572.396845204406418, 4470006.530403845943511 ], [ 440572.362769869680051, 4470006.48938846681267 ], [ 440572.326556675950997, 4470006.45024776738137 ], [ 440498.154589739744551, 4469930.451259136199951 ], [ 440436.609299297851976, 4469823.295161128044128 ], [ 440362.28287797421217, 4469620.490836597047746 ], [ 440344.22216994734481, 4469409.103771107271314 ], [ 440344.214950021996628, 4469409.041991067118943 ], [ 440344.203903173387516, 4469408.980779403820634 ], [ 440333.573403173417319, 4469359.02067940402776 ], [ 440333.554976153478492, 4469358.947692047804594 ], [ 440302.733976153074764, 4469253.727692048065364 ], [ 440302.717925458564423, 4469253.677784904837608 ], [ 440280.66670191049343, 4469190.816313568502665 ], [ 440308.881101723003667, 4469125.414513108320534 ], [ 440308.900310028635431, 4469125.366627565585077 ], [ 440308.917022963403724, 4469125.317815045826137 ], [ 440308.931196037854534, 4469125.268205489031971 ], [ 440308.942791523586493, 4469125.217930953018367 ], [ 440308.951778553484473, 4469125.1671252688393 ], [ 440308.958133204316255, 4469125.115923680365086 ], [ 440308.961838560062461, 4469125.064462485723197 ], [ 440308.962884757085703, 4469125.012878674082458 ], [ 440308.961269010440446, 4469124.961309558711946 ], [ 440308.956995621265378, 4469124.909892418421805 ], [ 440308.950075965200085, 4469124.858764122240245 ], [ 440308.940528462291695, 4469124.808060775510967 ], [ 440283.680809650744777, 4469007.404280353337526 ], [ 440278.65299571066862, 4468982.446124794892967 ], [ 440244.162321130395867, 4468800.911848199553788 ], [ 440218.34111647226382, 4468664.242152838036418 ], [ 440218.336575683322735, 4468664.219550251029432 ], [ 440197.685675683547743, 4468567.229550249874592 ], [ 440197.683432321588043, 4468567.219279333949089 ], [ 440151.270566802297253, 4468359.9566187588498 ], [ 440183.807546705123968, 4468355.679946286603808 ], [ 440202.718710821121931, 4468353.510748334228992 ], [ 440219.334547713340726, 4468351.623381623998284 ], [ 440225.080932746641338, 4468351.244837262667716 ], [ 440225.125631524075288, 4468351.240883733145893 ], [ 440225.193514179845806, 4468351.233341216109693 ], [ 440255.341290878306609, 4468349.235918819904327 ], [ 440291.329747731389944, 4468348.276986885815859 ], [ 440343.782650849374477, 4468350.194410666823387 ], [ 440387.406913828803226, 4468353.999266794882715 ], [ 440425.786484507203568, 4468359.721477842889726 ], [ 440470.625644236744847, 4468368.277220400050282 ], [ 440474.928317628626246, 4468369.105728867463768 ], [ 440498.759226531197783, 4468374.017471877858043 ], [ 440506.56694071542006, 4468376.17856318783015 ], [ 440506.569093295023777, 4468376.179156412370503 ], [ 440562.213974259793758, 4468391.447379258461297 ], [ 440622.358769872167613, 4468408.625449943356216 ], [ 440622.398479583323933, 4468408.635914607904851 ], [ 440641.058254241826944, 4468413.145684313960373 ], [ 440672.758032192301471, 4468420.815554784610868 ], [ 440672.800836942158639, 4468420.824923827312887 ], [ 440722.69063694216311, 4468430.604523827321827 ], [ 440722.730558644107077, 4468430.611512518487871 ], [ 440783.410358644148801, 4468439.971012517809868 ], [ 440783.466865792463068, 4468439.978087676689029 ], [ 440810.026665792393032, 4468442.537887676618993 ], [ 440810.032484717608895, 4468442.538431340828538 ], [ 440829.702384717704263, 4468444.318231340497732 ], [ 440841.892627269437071, 4468445.418253257870674 ], [ 440841.92976312310202, 4468445.420908442698419 ], [ 440855.559548071876634, 4468446.140702366828918 ], [ 440887.039230925845914, 4468447.810496151447296 ], [ 440887.067061082285363, 4468447.811583966016769 ], [ 440946.696761082683224, 4468449.311083967797458 ], [ 440946.718426918028854, 4468449.311393968760967 ], [ 441075.997626917785965, 4468449.760393968783319 ], [ 441076.050452062627301, 4468449.759181444533169 ], [ 441076.103139418235514, 4468449.755180356092751 ], [ 441076.155541883199476, 4468449.748401874676347 ], [ 441076.207513151632156, 4468449.738864925689995 ], [ 441076.258908121555578, 4468449.726596135646105 ], [ 441076.309583299909718, 4468449.71162975858897 ], [ 441076.359397203370463, 4468449.694007580168545 ], [ 441076.40821075317217, 4468449.673778801225126 ], [ 441076.455887663527392, 4468449.650999899953604 ], [ 441076.502294822130352, 4468449.625734472647309 ], [ 441076.547302661696449, 4468449.598053062334657 ], [ 441076.590785522013903, 4468449.568032952025533 ], [ 441076.632622000237461, 4468449.535757957957685 ], [ 441076.672695290471893, 4468449.501318191178143 ], [ 441076.710893509385642, 4468449.4648098051548 ], [ 441076.747110008844174, 4468449.426334731280804 ], [ 441076.781243673583958, 4468449.386000390164554 ], [ 441076.813199203636032, 4468449.343919394537807 ], [ 441076.842887380218599, 4468449.300209231674671 ], [ 441076.870225314924028, 4468449.254991940222681 ], [ 441076.895136681152508, 4468449.208393764682114 ], [ 441076.917551927210297, 4468449.16054480522871 ], [ 441076.937408470606897, 4468449.111578655429184 ], [ 441076.954650872386992, 4468449.061632026918232 ], [ 441076.969230992428493, 4468449.010844368487597 ], [ 441076.981108123494778, 4468448.959357477724552 ], [ 441076.990249105088878, 4468448.907315104268491 ], [ 441076.996628415887244, 4468448.854862549342215 ], [ 441106.533128416282125, 4468137.573562549427152 ], [ 441115.48203866626136, 4468043.153154456056654 ], [ 441115.482945653086063, 4468043.143038114532828 ], [ 441123.411845653725322, 4467949.35273811314255 ], [ 441123.413080765400082, 4467949.336566811427474 ], [ 441131.351780765224248, 4467832.976066812872887 ], [ 441131.352978944603819, 4467832.955337662249804 ], [ 441137.501478944788687, 4467703.214937661774457 ], [ 441137.502045690780506, 4467703.200891317799687 ], [ 441142.150445690087508, 4467563.650291319005191 ], [ 441142.150939950486645, 4467563.627958768978715 ], [ 441143.95909173641121, 4467398.641958170570433 ], [ 441146.537604812067002, 4467268.155856966972351 ], [ 441146.537739516468719, 4467268.147098335437477 ], [ 441147.89633951644646, 4467144.626798338256776 ], [ 441147.89639668748714, 4467144.618373906239867 ], [ 441148.055696687893942, 4467082.728173904120922 ], [ 441148.055440187454224, 4467082.702806177549064 ], [ 441146.724840187467635, 4467024.342506177723408 ], [ 441146.724679572100285, 4467024.33630551956594 ], [ 441144.304019927221816, 4466940.884491729550064 ], [ 441142.432694034359884, 4466790.216161260381341 ], [ 441148.710003744636197, 4466375.679395682178438 ], [ 441190.224042252812069, 4466383.26511640381068 ], [ 441372.005155777325854, 4466441.63169087190181 ], [ 441569.550061264191754, 4466507.97179036680609 ], [ 441635.906512564746663, 4466538.048933220095932 ], [ 441645.081777301267721, 4466543.412681530229747 ], [ 441684.725072928529698, 4466566.592714229598641 ], [ 441718.007437482650857, 4466587.818412372842431 ], [ 441732.897517743054777, 4466598.411849580705166 ], [ 441747.529741804057267, 4466609.51207488682121 ], [ 441765.189438740024343, 4466624.060227743349969 ], [ 441778.721647696569562, 4466636.331501497887075 ], [ 441801.267171417013742, 4466658.540346034802496 ], [ 441819.17400852299761, 4466678.296497316099703 ], [ 441840.445425039157271, 4466704.864338580518961 ], [ 441846.276993229868822, 4466713.545804473571479 ], [ 441846.295521786552854, 4466713.572443787008524 ], [ 441850.715621787239797, 4466719.712443788535893 ], [ 441850.716899293707684, 4466719.714214304462075 ], [ 441854.573473707365338, 4466725.046822996810079 ], [ 441868.781447255867533, 4466748.418157204985619 ], [ 441872.215935884451028, 4466754.616939417086542 ], [ 441875.070713508117478, 4466760.326395010575652 ], [ 441883.150266239535995, 4466776.569105818867683 ], [ 441888.779288823425304, 4466789.087129895575345 ], [ 441896.766103959642351, 4466808.927546520717442 ], [ 441903.593996395647991, 4466828.964703366160393 ], [ 441911.258747077197768, 4466855.582511908374727 ], [ 441911.274422203248832, 4466855.632066588848829 ], [ 441911.292650880117435, 4466855.680739901959896 ], [ 441911.313383865228388, 4466855.728400359861553 ], [ 441911.336565150937531, 4466855.774919216521084 ], [ 441911.362132115871646, 4466855.820170804858208 ], [ 441911.390015694138128, 4466855.864032885059714 ], [ 441911.420140561705921, 4466855.906386967748404 ], [ 441911.452425339841284, 4466855.947118639014661 ], [ 441911.486782815365586, 4466855.98611786775291 ], [ 441911.523120175756048, 4466856.023279302753508 ], [ 441911.561339260195382, 4466856.058502555824816 ], [ 441911.601336824474856, 4466856.091692476533353 ], [ 441911.643004820216447, 4466856.122759406454861 ], [ 441911.68623068643501, 4466856.151619421318173 ], [ 441911.730897653847933, 4466856.178194560110569 ], [ 441911.776885060186032, 4466856.202413032762706 ], [ 441911.824068676156458, 4466856.224209417589009 ], [ 441911.872321041068062, 4466856.243524831719697 ], [ 441911.921511807187926, 4466856.260307099670172 ], [ 441911.971508091723081, 4466856.274510884657502 ], [ 441912.02217483590357, 4466856.286097818054259 ], [ 441912.073375169828068, 4466856.295036598108709 ], [ 441912.124970782140736, 4466856.301303077489138 ], [ 441912.176822293724399, 4466856.304880329407752 ], [ 441912.22878963407129, 4466856.305758689530194 ], [ 441912.280732419865672, 4466856.303935785777867 ], [ 441912.332510334206745, 4466856.2994165411219 ], [ 441930.979610333917663, 4466854.182316539809108 ], [ 441931.031497611489613, 4466854.175044106319547 ], [ 441931.082932764897123, 4466854.165063982829452 ], [ 441931.133774595335126, 4466854.152403566986322 ], [ 441931.18388353305636, 4466854.137097612954676 ], [ 441931.233122020086739, 4466854.119188139215112 ], [ 441931.281354888051283, 4466854.098724309355021 ], [ 441931.328449729073327, 4466854.075762301683426 ], [ 441931.374277259455994, 4466854.050365149974823 ], [ 441931.418711674574297, 4466854.02260257396847 ], [ 441931.461630993930157, 4466853.992550787515938 ], [ 441931.502917396428529, 4466853.960292287170887 ], [ 441931.542457543488126, 4466853.925915628671646 ], [ 441931.580142890452407, 4466853.889515182934701 ], [ 441931.615869984321762, 4466853.851190874353051 ], [ 441931.649540747806896, 4466853.811047910712659 ], [ 441931.681062748772092, 4466853.769196490757167 ], [ 441931.710349453613162, 4466853.725751505233347 ], [ 441931.73732046521036, 4466853.68083221744746 ], [ 441931.76190174324438, 4466853.634561939164996 ], [ 441931.784025807806756, 4466853.587067690677941 ], [ 441931.803631924442016, 4466853.538479852490127 ], [ 441931.820666270738002, 4466853.488931805826724 ], [ 441931.835082084522583, 4466853.43855956941843 ], [ 441931.846839791745879, 4466853.387501425109804 ], [ 441931.855907115386799, 4466853.335897534154356 ], [ 441931.862259164161514, 4466853.283889560028911 ], [ 441931.865878500393592, 4466853.231620274484158 ], [ 441931.866755188500974, 4466853.179233164526522 ], [ 441930.462563709472306, 4466704.858433187007904 ], [ 441929.044772865192499, 4466519.936327355913818 ], [ 441928.187883326958399, 4466398.886505252681673 ], [ 441927.616304255963769, 4466277.554448046721518 ], [ 441927.757998367829714, 4466199.138206943869591 ], [ 441927.757999205146916, 4466199.135138884186745 ], [ 441927.650399204459973, 4466113.813838885165751 ], [ 441927.650384514941834, 4466113.809534995816648 ], [ 441927.149803280306514, 4466023.859276095405221 ], [ 441927.612611453223508, 4466011.394202832132578 ], [ 441927.61329934472451, 4466011.355954931117594 ], [ 441927.469299344404135, 4465885.599454930052161 ], [ 441927.469253557093907, 4465885.590962384827435 ], [ 441926.16565355687635, 4465750.335562386550009 ], [ 441926.16419860010501, 4465750.290422769263387 ], [ 441922.617898600525223, 4465685.647222766652703 ], [ 441922.611729179508984, 4465685.578376377001405 ], [ 441917.478329178877175, 4465644.372476376593113 ], [ 441917.470448729989585, 4465644.320427868515253 ], [ 441910.626248730754014, 4465605.9662278695032 ], [ 441910.623236870451365, 4465605.950114520266652 ], [ 441905.775236870162189, 4465581.141114520840347 ], [ 441905.765740159258712, 4465581.097671755589545 ], [ 441898.208640159515198, 4465549.872471755370498 ], [ 441898.199864540540148, 4465549.838787247426808 ], [ 441890.357664540642872, 4465521.750387247651815 ], [ 441890.345635502249934, 4465521.710526203736663 ], [ 441877.94073550181929, 4465483.49892620369792 ], [ 441877.924002875806764, 4465483.451481997035444 ], [ 441858.24740287597524, 4465431.837381998077035 ], [ 441858.225843251566403, 4465431.785289826802909 ], [ 441838.264143251639325, 4465387.157689825631678 ], [ 441838.230195148440544, 4465387.088984991423786 ], [ 441820.122195148491301, 4465353.725184991024435 ], [ 441820.103182706458028, 4465353.691708342172205 ], [ 441788.02218270621961, 4465299.653808343224227 ], [ 441787.981757106434088, 4465299.591159484349191 ], [ 441754.47495710675139, 4465251.684259483590722 ], [ 441754.44977657526033, 4465251.649843646213412 ], [ 441754.423151644587051, 4465251.61653265543282 ], [ 441714.78555164457066, 4465204.137332656420767 ], [ 441714.762351088167634, 4465204.110522999428213 ], [ 441686.246051087917294, 4465172.31522299721837 ], [ 441686.192882984993048, 4465172.260315861552954 ], [ 441649.977282985229976, 4465137.613515863195062 ], [ 441649.947196795197669, 4465137.585887498222291 ], [ 441616.298096795217134, 4465107.929387497715652 ], [ 441616.254250591853634, 4465107.89291184861213 ], [ 441584.458750591787975, 4465082.941511848941445 ], [ 441584.423811468412168, 4465082.915305860340595 ], [ 441547.2102114680456, 4465056.253005860373378 ], [ 441547.162130310898647, 4465056.220624234527349 ], [ 441507.239630310621578, 4465030.984124234877527 ], [ 441507.211308237048797, 4465030.966871354728937 ], [ 441475.130708237004001, 4465012.146571354009211 ], [ 441475.070702517754398, 4465012.114068293944001 ], [ 441432.724302518530749, 4464991.012468294240534 ], [ 441432.659207827586215, 4464990.982886984944344 ], [ 441392.166407827462535, 4464974.301286986097693 ], [ 441392.162790487811435, 4464974.299805033951998 ], [ 441361.365490487136412, 4464961.753005032427609 ], [ 441361.308365546108689, 4464961.731738387607038 ], [ 441330.511065546364989, 4464951.323638387955725 ], [ 441330.470604460104369, 4464951.310913849622011 ], [ 441294.255304459831677, 4464940.760213849134743 ], [ 441294.22943990281783, 4464940.753053751774132 ], [ 441262.719239903381094, 4464932.483653751201928 ], [ 441262.66150765074417, 4464932.47031762637198 ], [ 441224.877807650249451, 4464924.913917627185583 ], [ 441224.820078265445773, 4464924.904120549559593 ], [ 441172.817692420736421, 4464917.638218606822193 ], [ 441174.264717359910719, 4464792.275830667465925 ], [ 441175.408289798418991, 4464712.42185524944216 ], [ 441178.380177089711651, 4464519.354380880482495 ], [ 441184.250172460626345, 4464151.853570704348385 ], [ 441184.250239197572228, 4464151.848627337254584 ], [ 441186.346039196825586, 4463961.80522733554244 ], [ 441186.346068073238712, 4463961.802190742455423 ], [ 441187.184168073523324, 4463856.921690743416548 ], [ 441187.183591818087734, 4463856.878828894346952 ], [ 441182.148955648648553, 4463712.588185938075185 ], [ 441184.23739260394359, 4463570.10045538470149 ], [ 441184.236806944711134, 4463570.048575946129858 ], [ 441184.2335313319345, 4463569.996796708554029 ], [ 441184.227574582968373, 4463569.945257051847875 ], [ 441184.218952732393518, 4463569.894095711410046 ], [ 441184.207688988593873, 4463569.843450403772295 ], [ 441184.19381367159076, 4463569.793457457795739 ], [ 441184.177364131144714, 4463569.744251444935799 ], [ 441184.158384646463674, 4463569.695964818820357 ], [ 441184.136926306935493, 4463569.648727558553219 ], [ 441184.113046874466818, 4463569.602666817605495 ], [ 441184.086810628243256, 4463569.557906584814191 ], [ 441184.058288191445172, 4463569.514567345380783 ], [ 441184.027556341316085, 4463569.472765760496259 ], [ 441183.994697802409064, 4463569.432614352554083 ], [ 441183.959801024000626, 4463569.394221203401685 ], [ 441183.9229599419632, 4463569.357689658179879 ], [ 441183.884273725736421, 4463569.323118054307997 ], [ 441183.843846511619631, 4463569.290599453262985 ], [ 441183.801787122385576, 4463569.260221387259662 ], [ 441183.758208774321247, 4463569.232065630145371 ], [ 441183.713228772452567, 4463569.206207971088588 ], [ 441183.666968194767833, 4463569.182718014344573 ], [ 441183.619551566371229, 4463569.161658992059529 ], [ 441183.571106524323113, 4463569.14308758918196 ], [ 441183.521763473807368, 4463569.127053798176348 ], [ 441183.471655237488449, 4463569.113600777462125 ], [ 441183.420916697592475, 4463569.102764742448926 ], [ 441183.369684433098882, 4463569.094574860297143 ], [ 441182.853799795673694, 4463569.025779270567 ], [ 441179.183644206670579, 4463567.662565190345049 ], [ 441176.138909500907175, 4463565.457747559994459 ], [ 441170.071864404191729, 4463558.949520372785628 ], [ 441170.055149539606646, 4463558.932019490748644 ], [ 441159.907349539222196, 4463548.561219491995871 ], [ 441159.872976209095214, 4463548.527736975811422 ], [ 441140.579176208993886, 4463530.61573697347194 ], [ 441140.534138652088586, 4463530.576366356573999 ], [ 441140.486827581829857, 4463530.539759122766554 ], [ 441121.597427582077216, 4463516.807159124873579 ], [ 441121.554457893711515, 4463516.777601591311395 ], [ 441121.51000562479021, 4463516.750324537046254 ], [ 441121.464191687584389, 4463516.725402155891061 ], [ 441121.417140698002186, 4463516.7029022378847 ], [ 441121.368980636529159, 4463516.682885984890163 ], [ 441121.319842500728555, 4463516.665407841093838 ], [ 441121.269859948311932, 4463516.650515347719193 ], [ 441121.219168933865149, 4463516.638249012641609 ], [ 441121.167907339171506, 4463516.628642201423645 ], [ 441121.116214597830549, 4463516.6217210451141 ], [ 441121.064231316326186, 4463516.617504368536174 ], [ 441121.012098891369533, 4463516.61600364279002 ], [ 441120.959959125320893, 4463516.617222947999835 ], [ 441120.907953840505797, 4463516.621158969588578 ], [ 441120.856224493472837, 4463516.627801000140607 ], [ 441120.804911790241022, 4463516.637130972929299 ], [ 441120.754155303526204, 4463516.649123511277139 ], [ 441120.704093093052506, 4463516.663745993748307 ], [ 441120.654861330229323, 4463516.680958647280931 ], [ 441120.606593927368522, 4463516.700714652426541 ], [ 441120.559422173944768, 4463516.72296027187258 ], [ 441120.513474379084073, 4463516.747634997591376 ], [ 441120.468875522667076, 4463516.774671711958945 ], [ 441120.425746915512718, 4463516.803996874019504 ], [ 441120.384205869224388, 4463516.835530718788505 ], [ 441120.344365377095528, 4463516.869187473319471 ], [ 440855.468533052247949, 4463752.740430733188987 ], [ 440561.714867931674235, 4463769.389741475693882 ], [ 440264.272836938558612, 4463746.707494998350739 ], [ 440264.22005910408916, 4463746.704870529472828 ], [ 440264.167216321220621, 4463746.705037692561746 ], [ 440264.114456147421151, 4463746.707996021024883 ], [ 440264.06192590954015, 4463746.713737254962325 ], [ 440264.009772292454727, 4463746.722245360724628 ], [ 440263.958140929229558, 4463746.733496582135558 ], [ 439847.071740928979125, 4463849.187796582467854 ], [ 439847.061786960752215, 4463849.190297110937536 ], [ 439674.477409996499773, 4463893.487838380970061 ], [ 439465.235823374765459, 4463905.534253148362041 ], [ 439465.184483652701601, 4463905.538538130000234 ], [ 439465.133432743197773, 4463905.545461479574442 ], [ 439465.082806141872425, 4463905.555004820227623 ], [ 439465.032738218200393, 4463905.56714282464236 ], [ 439464.983361858874559, 4463905.581843276508152 ], [ 439464.934808115125634, 4463905.599067158065736 ], [ 439464.887205854756758, 4463905.618768755346537 ], [ 439464.840681420231704, 4463905.640895777381957 ], [ 439464.795358293456957, 4463905.665389496833086 ], [ 439464.751356767781544, 4463905.692184904590249 ], [ 439464.70879362890264, 4463905.72121088206768 ], [ 439464.667781844735146, 4463905.752390389330685 ], [ 439464.628430265991483, 4463905.785640672780573 ], [ 439464.59084333665669, 4463905.820873483084142 ], [ 439464.555120817327406, 4463905.857995306141675 ], [ 439464.521357520134188, 4463905.896907616406679 ], [ 439464.489643057167996, 4463905.937507134862244 ], [ 439464.460061602760106, 4463905.979686107486486 ], [ 439464.432691669731867, 4463906.023332583718002 ], [ 439464.407605901535135, 4463906.068330720998347 ], [ 439464.384870878944639, 4463906.114561088383198 ], [ 439464.364546943630558, 4463906.161900985054672 ], [ 439464.346688037971035, 4463906.21022476349026 ], [ 439464.331341561686713, 4463906.259404167532921 ], [ 439464.318548246403225, 4463906.309308668598533 ], [ 439464.308342047152109, 4463906.359805813059211 ], [ 439464.300750052498188, 4463906.410761576145887 ], [ 439435.213160035724286, 4464143.371195291168988 ], [ 439306.95929944794625, 4464413.757592109031975 ], [ 438823.478084761300124, 4464722.588556440547109 ], [ 438823.438595859799534, 4464722.61512454226613 ], [ 438823.40041582158301, 4464722.643541474826634 ], [ 438823.363631133805029, 4464722.673742867074907 ], [ 438823.32832512242021, 4464722.705660305917263 ], [ 438823.294577764172573, 4464722.739221491850913 ], [ 438611.020177763712127, 4464944.136621492914855 ], [ 438528.739978119847365, 4465029.952921121381223 ], [ 438528.699750934378244, 4465029.997480716556311 ], [ 438528.662270009168424, 4465030.044373830780387 ], [ 438528.627670417481568, 4465030.09343147277832 ], [ 438422.839970418193843, 4465190.074731472879648 ], [ 438422.811680605285801, 4465190.12010558322072 ], [ 438422.785856555972714, 4465190.1669269669801 ], [ 438422.762572104344144, 4465190.215061753988266 ], [ 438422.741893823491409, 4465190.264372321777046 ], [ 438422.723880835168529, 4465190.314717686735094 ], [ 438422.708584640698973, 4465190.365953902713954 ], [ 438422.696048973826692, 4465190.417934481054544 ], [ 438422.686309675627854, 4465190.470510801300406 ], [ 438422.679394591832533, 4465190.523532543331385 ], [ 438422.675323493604083, 4465190.576848109252751 ], [ 438422.674108020728454, 4465190.630305064842105 ], [ 438422.675751648319419, 4465190.683750568889081 ], [ 438422.680249677097891, 4465190.737031814642251 ], [ 438469.170449676923454, 4465608.000131814740598 ], [ 438508.174460445705336, 4465956.101429669186473 ], [ 438553.178691022796556, 4466361.598500072024763 ], [ 438653.98940717097139, 4467336.197889145463705 ], [ 438653.990457295032684, 4467336.207579639740288 ], [ 438711.79625729523832, 4467846.409179637208581 ], [ 438711.796465535240714, 4467846.411002637818456 ], [ 438767.901220525032841, 4468333.606033220887184 ], [ 438784.426059836579952, 4468495.644654663279653 ], [ 438793.051159808295779, 4468580.220554388128221 ], [ 438793.057597015285864, 4468580.270953679457307 ], [ 438793.066585810447577, 4468580.320960955694318 ], [ 438793.078102989005856, 4468580.370447123423219 ], [ 438793.086258194525726, 4468580.398863441310823 ] ] ] ] } }
]
}
